{
  "type": "FeatureCollection",
  "features": [
    {
      "type": "Feature",
      "properties": {
        "name": "Katanga Cobalt Region (DRC)",
        "source": "Maus et al. 2022 training data",
        "category": "training_mine"
      },
      "geometry": {
        "type": "Polygon",
        "coordinates": [
          [
            [
              24.25,
              -10.75
            ],
            [
              24.75,
              -10.75
            ],
            [
              24.75,
              -10.25
            ],
            [
              24.25,
              -10.25
            ],
            [
              24.25,
              -10.75
            ]
          ]
        ]
      }
    }
  ]
}