{
  "type": "FeatureCollection",
  "features": [
    {
      "type": "Feature",
      "properties": {
        "name": "small artisanal mine - training data",
        "source": "Maus et al. 2022"
      },
      "geometry": {
        "type": "Polygon",
        "coordinates": [
          [
            [
              24.45,
              -10.55
            ],
            [
              24.55,
              -10.55
            ],
            [
              24.55,
              -10.45
            ],
            [
              24.45,
              -10.45
            ],
            [
              24.45,
              -10.55
            ]
          ]
        ]
      }
    }
  ]
}