{
  "type": "FeatureCollection",
  "features": [
    {
      "type": "Feature",
      "properties": {
        "name": "Tungabhadra Reservoir Control",
        "landcover": "water",
        "expected": "CLEAN"
      },
      "geometry": {
        "type": "Polygon",
        "coordinates": [
          [
            [76.3910, 15.2360],
            [76.3995, 15.2332],
            [76.4082, 15.2324],
            [76.4172, 15.2338],
            [76.4256, 15.2370],
            [76.4327, 15.2419],
            [76.4378, 15.2480],
            [76.4404, 15.2547],
            [76.4402, 15.2615],
            [76.4372, 15.2679],
            [76.4319, 15.2732],
            [76.4250, 15.2768],
            [76.4172, 15.2784],
            [76.4091, 15.2780],
            [76.4014, 15.2756],
            [76.3947, 15.2714],
            [76.3897, 15.2658],
            [76.3869, 15.2592],
            [76.3860, 15.2525],
            [76.3868, 15.2457],
            [76.3890, 15.2402],
            [76.3910, 15.2360]
          ]
        ]
      }
    }
  ]
}