{
  "type": "FeatureCollection",
  "features": [
    {
      "type": "Feature",
      "properties": {
        "name": "South Gobi Coal Region (Mongolia)",
        "source": "Maus et al. 2022 training data",
        "category": "training_mine"
      },
      "geometry": {
        "type": "Polygon",
        "coordinates": [
          [
            [
              105.95,
              48.55
            ],
            [
              106.45,
              48.55
            ],
            [
              106.45,
              49.05
            ],
            [
              105.95,
              49.05
            ],
            [
              105.95,
              48.55
            ]
          ]
        ]
      }
    }
  ]
}