{
  "type": "FeatureCollection",
  "features": [
    {
      "type": "Feature",
      "properties": {
        "name": "gold mining - training data",
        "source": "Maus et al. 2022"
      },
      "geometry": {
        "type": "Polygon",
        "coordinates": [
          [
            [
              -76.14999999999999,
              -12.25
            ],
            [
              -76.05,
              -12.25
            ],
            [
              -76.05,
              -12.149999999999999
            ],
            [
              -76.14999999999999,
              -12.149999999999999
            ],
            [
              -76.14999999999999,
              -12.25
            ]
          ]
        ]
      }
    }
  ]
}