{
  "type": "FeatureCollection",
  "features": [
    {
      "type": "Feature",
      "properties": {
        "name": "diamond mining - training data",
        "source": "Maus et al. 2022"
      },
      "geometry": {
        "type": "Polygon",
        "coordinates": [
          [
            [
              113.15,
              64.45
            ],
            [
              113.25,
              64.45
            ],
            [
              113.25,
              64.55
            ],
            [
              113.15,
              64.55
            ],
            [
              113.15,
              64.45
            ]
          ]
        ]
      }
    }
  ]
}